STARLINK-6193           
1 56904U 23083AE  24148.64012805  .00002107  00000+0  17094-3 0  9998
2 56904  43.0039   6.5701 0001434 267.7503  92.3175 15.02543021 53880
STARLINK-6183           
1 56905U 23083AF  24148.73435788  .00003461  00000+0  27116-3 0  9998
2 56905  43.0039   6.4225 0001413 266.7716  93.2965 15.02539863 53890
STARLINK-6098           
1 56906U 23083AG  24148.65455751  .00003319  00000+0  26063-3 0  9994
2 56906  43.0042   6.6816 0001229 266.0064  94.0638 15.02543467 53887
STARLINK-6110           
1 56907U 23083AH  24148.32549835  .00005453  00000+0  41836-3 0  9992
2 56907  43.0053   8.5116 0001905 263.8521  96.2104 15.02543566 53947
STARLINK-6186           
1 56908U 23083AJ  24148.31550978  .00001489  00000+0  12531-3 0  9997
2 56908  43.0054   8.4358 0001642 266.2684  93.7970 15.02539177 53835
STARLINK-5999           
1 56909U 23083AK  24148.59473967  .00002963  00000+0  23428-3 0  9995
2 56909  43.0051   7.0899 0001651 257.4576 102.6082 15.02538535 53987
STARLINK-6179           
1 56910U 23083AL  24148.30884578  .00001933  00000+0  15810-3 0  9992
2 56910  43.0048   8.3907 0002823 279.0795  80.9728 15.02545259 53834
STARLINK-6116           
1 56911U 23083AM  24148.32105720  .00003177  00000+0  25011-3 0  9996
2 56911  43.0032   8.4762 0001153 263.9957  96.0754 15.02544625 53838
STARLINK-5805           
1 56912U 23083AN  24148.63791496  .00001377  00000+0  11701-3 0  9993
2 56912  43.0041   6.5498 0001086 263.2804  96.7915 15.02534271 53880
STARLINK-5950           
1 56913U 23083AP  24148.65011848  .00002097  00000+0  17024-3 0  9996
2 56913  43.0060   6.6466 0001380 274.0369  86.0315 15.02536079 53885
STARLINK-5961           
1 56914U 23083AQ  24148.03295173  .00003399  00000+0  26658-3 0  9993
2 56914  43.0032   9.7539 0001233 268.8359  91.2342 15.02537989 53796
STARLINK-5965           
1 56915U 23083AR  24148.90936859  .00010966  00000+0  82512-3 0  9992
2 56915  43.0029   5.1477 0001398 267.8599  92.2084 15.02555650 53925
STARLINK-5973           
1 56916U 23083AS  24148.69106887  .00002249  00000+0  18147-3 0  9997
2 56916  43.0025   6.0877 0001468 268.2294  91.8381 15.02541586 53862
STARLINK-5971           
1 56917U 23083AT  24148.91667824  .00005064  00000+0  38967-3 0  9996
2 56917  43.0000   5.0014 0001208 259.4540 188.2833 15.02537298  6266
STARLINK-5951           
1 56918U 23083AU  24148.68995787  .00002839  00000+0  22515-3 0  9992
2 56918  43.0047   6.0811 0001415 265.0107  95.0574 15.02542650 53892
STARLINK-5966           
1 56919U 23083AV  24148.69439569  .00001982  00000+0  16173-3 0  9996
2 56919  43.0056   6.1152 0001386 265.3215  94.7469 15.02541227 53890
STARLINK-5960           
1 56920U 23083AW  24148.68330132  .00001469  00000+0  12380-3 0  9999
2 56920  43.0045   6.0306 0001165 270.8382  89.2327 15.02535741 53897
STARLINK-5958           
1 56921U 23083AX  24148.75976507  .00001699  00000+0  14081-3 0  9995
2 56921  43.0043   5.7456 0001538 252.2601 107.8073 15.02540021 53904
STARLINK-5937           
1 56922U 23083AY  24148.74422651  .00003343  00000+0  26240-3 0  9999
2 56922  43.0051   5.6299 0001568 259.6563 100.4102 15.02543287 53908
STARLINK-5952           
1 56923U 23083AZ  24148.68662584  .00002601  00000+0  20750-3 0  9990
2 56923  43.0047   6.0557 0001461 264.2377  95.8298 15.02542521 53894
STARLINK-5731           
1 56924U 23083BA  24148.87054073  .00002272  00000+0  18326-3 0  9990
2 56924  43.0036   4.8588 0001530 266.7808  93.2859 15.02527452 54034
STARLINK-5733           
1 56925U 23083BB  24148.94032934  .00001677  00000+0  13918-3 0  9991
2 56925  43.0059   4.5198 0001491 262.0765  97.9909 15.02539837 53936
STARLINK-5746           
1 56926U 23083BC  24148.68109727  .00009453  00000+0  71373-3 0  9997
2 56926  43.0036   6.0145 0001432 276.7681  83.2998 15.02543420 53899
STARLINK-5808           
1 56927U 23083BD  24148.41940912  .00006280  00000+0  47957-3 0  9994
2 56927  43.0010 278.0413 0000786 244.6311 115.4450 15.02532729 54887
STARLINK-5847           
1 57048U 23088A   24148.79224006  .00000937  00000+0  84409-4 0  9991
2 57048  43.0060  44.6361 0001241 264.6805  95.3896 15.02536314 52627
STARLINK-5850           
1 57049U 23088B   24148.79667813  .00002479  00000+0  19847-3 0  9995
2 57049  43.0045  44.6696 0001286 260.5912  99.4785 15.02543713 52640
STARLINK-5845           
1 57050U 23088C   24148.78335929  .00003392  00000+0  26598-3 0  9992
2 57050  43.0046  44.5687 0001466 259.4241 100.6436 15.02542313 52456
STARLINK-5839           
1 57051U 23088D   24148.78224972  .00003184  00000+0  25064-3 0  9994
2 57051  43.0061  44.5594 0001339 258.0452 102.0241 15.02543127 52453
STARLINK-5860           
1 57052U 23088E   24148.78557929  .00002145  00000+0  17375-3 0  9998
2 57052  43.0048  44.5860 0001465 262.5880  97.4796 15.02543116 52450
STARLINK-5865           
1 57053U 23088F   24148.96837526 -.00000307  00000+0 -76463-5 0  9998
2 57053  43.0055  43.3756 0001037 262.5003  97.5722 15.02524885 52487
STARLINK-5881           
1 57054U 23088G   24148.09859711 -.00006264  00000+0 -44889-3 0  9996
2 57054  43.0041  48.0315 0001436 268.4720  91.5957 15.02549524 52357
STARLINK-6237           
1 57055U 23088H   24148.77670561  .00000163  00000+0  27185-4 0  9997
2 57055  43.0052  44.5179 0001953 287.4768  72.5861 15.02539737 52455
STARLINK-6353           
1 57056U 23088J   24148.09416377  .00000555  00000+0  56172-4 0  9999
2 57056  43.0037  47.9957 0001310 270.6213  89.4479 15.02543129 52357
STARLINK-6223           
1 57057U 23088K   24148.88856689  .00001443  00000+0  12187-3 0  9995
2 57057  43.0037  43.6142 0001365 257.7334 102.3356 15.02541435 52477
STARLINK-6217           
1 57058U 23088L   24148.09749656  .00002135  00000+0  17303-3 0  9998
2 57058  43.0041  48.0203 0001149 270.5455  89.5256 15.02537157 52355
STARLINK-6211           
1 57059U 23088M   24148.08861566  .00004360  00000+0  33756-3 0  9995
2 57059  43.0050  47.9541 0001370 269.5991  90.4694 15.02541123 52353
STARLINK-6227           
1 57060U 23088N   24148.09194715  .00005380  00000+0  41296-3 0  9994
2 57060  43.0044  47.9804 0001429 260.2971  99.7710 15.02543750 52350
STARLINK-5869           
1 57061U 23088P   24148.41434462  .00001321  00000+0  11283-3 0  9991
2 57061  43.0049  46.0948 0001270 258.2440 101.8260 15.02539768 51423
STARLINK-5536           
1 57062U 23088Q   24148.74365681  .00004448  00000+0  34404-3 0  9997
2 57062  43.0046  31.2422 0001315 259.9886 100.0808 15.02546299 52603
STARLINK-5832           
1 57063U 23088R   24148.73896235  .00000880  00000+0  80182-4 0  9992
2 57063  43.0018  44.2269 0000996 235.7701 124.3047 15.02546118 52455
STARLINK-5822           
1 57064U 23088S   24148.88302024  .00001295  00000+0  11093-3 0  9992
2 57064  43.0039  43.5931 0001461 255.8428 104.2253 15.02539398 51495
STARLINK-5830           
1 57065U 23088T   24148.74007561  .00001682  00000+0  13953-3 0  9993
2 57065  43.0041  44.2370 0001211 265.7333  94.3371 15.02537281 51479
STARLINK-5827           
1 57066U 23088U   24148.74229249  .00001744  00000+0  14410-3 0  9991
2 57066  43.0041  44.2577 0001499 267.0471  93.0200 15.02542234 51476
STARLINK-5824           
1 57067U 23088V   24148.91667824 -.00018205  00000+0 -13356-2 0  9995
2 57067  42.9997  43.1978 0001100 257.9373  14.5719 15.02549565  6248
STARLINK-5844           
1 57068U 23088W   24148.40324145  .00003402  00000+0  26669-3 0  9999
2 57068  43.0048  46.0113 0001678 255.1736 104.8920 15.02546346 52404
STARLINK-5821           
1 57069U 23088X   24148.39029225 -.00006285  00000+0 -45019-3 0  9993
2 57069  43.0035  33.7677 0001674 339.4036  20.6739 15.02569168 52370
STARLINK-5828           
1 57070U 23088Y   24148.74045296  .00001036  00000+0  91763-4 0  9995
2 57070  43.0048  32.0958 0001080 264.5495  95.5224 15.02540188 52593
STARLINK-5834           
1 57071U 23088Z   24148.73045961  .00003649  00000+0  28502-3 0  9996
2 57071  43.0038  32.0229 0001401 270.9660  89.1022 15.02542003 52421
STARLINK-5843           
1 57072U 23088AA  24148.86896475  .00002282  00000+0  18393-3 0  9994
2 57072  43.0032  31.3434 0001361 256.8223 103.2467 15.02541997 51633
STARLINK-5838           
1 57073U 23088AB  24148.67285499 -.00007235  00000+0 -52077-3 0  9994
2 57073  43.0053  32.4485 0001603 264.6279  95.4380 15.02558351 51607
STARLINK-5773           
1 57074U 23088AC  24148.79878632  .00000643  00000+0  62694-4 0  9996
2 57074  43.0049  43.8185 0001066 278.0503  82.0218 15.02538711 52463
STARLINK-5542           
1 57075U 23088AD  24148.38586839  .00001429  00000+0  12093-3 0  9997
2 57075  43.0049  33.7348 0002969 299.6635  60.3911 15.02523370 52544
STARLINK-6155           
1 57076U 23088AE  24148.91667824 -.00016542  00000+0 -12120-2 0  9995
2 57076  42.9999  31.0600 0001095 262.1074   8.3743 15.02547749  6269
STARLINK-6194           
1 57077U 23088AF  24148.39141158  .00003375  00000+0  26477-3 0  9994
2 57077  43.0037  33.7754 0001251 268.4168  91.6531 15.02541739 52715
STARLINK-6246           
1 57078U 23088AG  24148.40028502 -.00000273  00000+0 -51253-5 0  9992
2 57078  43.0046  33.8402 0001339 264.9369  95.1320 15.02551078 52372
STARLINK-6245           
1 57079U 23088AH  24148.38031222  .00003959  00000+0  30794-3 0  9990
2 57079  43.0036  33.6912 0001235 270.8945  89.1756 15.02542368 52544
STARLINK-6243           
1 57080U 23088AJ  24148.39474282  .00003209  00000+0  25257-3 0  9996
2 57080  43.0041  33.8027 0001527 255.8490 104.2182 15.02526288 52379
STARLINK-6184           
1 57081U 23088AK  24148.37688663  .00018781  00000+0  13980-2 0  9995
2 57081  43.0028  33.6759 0004206 269.3714  90.6647 15.02629505 52540
STARLINK-6248           
1 57082U 23088AL  24148.38364113  .00003598  00000+0  28126-3 0  9997
2 57082  43.0061  33.7197 0001391 264.8582  95.2101 15.02542640 52540
